{
  "type": "FeatureCollection",
  "features": [
    {
      "type": "Feature",
      "properties": {
        "norad_id": 66460,
        "name": "STARLINK-35424",
        "group": "last-30-days",
        "lat": 4.4119723497518235,
        "lon": 81.29874647767663,
        "alt_km": 443.3921330504945,
        "timestamp": "2025-12-11T20:41:13.846171+00:00",
        "meta_object_name": "STARLINK-35424",
        "meta_object_id": "2025-262E",
        "meta_epoch": "2025-12-11T14:00:01.999872",
        "meta_mean_motion": 15.40641564,
        "meta_eccentricity": 0.00012412,
        "meta_inclination": 43,
        "meta_ra_of_asc_node": 78.1551,
        "meta_arg_of_pericenter": 268.7887,
        "meta_mean_anomaly": 350.6552,
        "meta_ephemeris_type": 0,
        "meta_classification_type": "U",
        "meta_norad_cat_id": 66460,
        "meta_element_set_no": 999,
        "meta_rev_at_epoch": 545,
        "meta_bstar": 0.0013421463,
        "meta_mean_motion_dot": 0.00056065,
        "meta_mean_motion_ddot": 0,
        "tle_line1": "1 66460U 25262E   25345.58335648  .00056065  00000+0  13421-2 0  9994",
        "tle_line2": "2 66460  43.0000  78.1551 0001241 268.7887 350.6552 15.40641564  5458"
      },
      "geometry": {
        "type": "Point",
        "coordinates": [
          81.29874647767663,
          4.4119723497518235
        ]
      }
    },
    {
      "type": "Feature",
      "properties": {
        "norad_id": 66461,
        "name": "STARLINK-35132",
        "group": "last-30-days",
        "lat": 12.81724374741073,
        "lon": 90.65022506878086,
        "alt_km": 441.9267438886318,
        "timestamp": "2025-12-11T20:41:13.846184+00:00",
        "meta_object_name": "STARLINK-35132",
        "meta_object_id": "2025-262F",
        "meta_epoch": "2025-12-11T14:00:01.999872",
        "meta_mean_motion": 15.40556535,
        "meta_eccentricity": 0.00017561,
        "meta_inclination": 43.0002,
        "meta_ra_of_asc_node": 78.1244,
        "meta_arg_of_pericenter": 303.6255,
        "meta_mean_anomaly": 328.3919,
        "meta_ephemeris_type": 0,
        "meta_classification_type": "U",
        "meta_norad_cat_id": 66461,
        "meta_element_set_no": 999,
        "meta_rev_at_epoch": 545,
        "meta_bstar": 0.0024317282,
        "meta_mean_motion_dot": 0.00102159,
        "meta_mean_motion_ddot": 0,
        "tle_line1": "1 66461U 25262F   25345.58335648  .00102159  00000+0  24317-2 0  9997",
        "tle_line2": "2 66461  43.0002  78.1244 0001756 303.6255 328.3919 15.40556535  5451"
      },
      "geometry": {
        "type": "Point",
        "coordinates": [
          90.65022506878086,
          12.81724374741073
        ]
      }
    },
    {
      "type": "Feature",
      "properties": {
        "norad_id": 66462,
        "name": "STARLINK-35499",
        "group": "last-30-days",
        "lat": 20.84463165572873,
        "lon": 100.60405564804553,
        "alt_km": 441.07748448001985,
        "timestamp": "2025-12-11T20:41:13.846195+00:00",
        "meta_object_name": "STARLINK-35499",
        "meta_object_id": "2025-262G",
        "meta_epoch": "2025-12-11T14:00:01.999872",
        "meta_mean_motion": 15.40578081,
        "meta_eccentricity": 0.00011052,
        "meta_inclination": 43.0003,
        "meta_ra_of_asc_node": 78.093,
        "meta_arg_of_pericenter": 294.6826,
        "meta_mean_anomaly": 349.7953,
        "meta_ephemeris_type": 0,
        "meta_classification_type": "U",
        "meta_norad_cat_id": 66462,
        "meta_element_set_no": 999,
        "meta_rev_at_epoch": 545,
        "meta_bstar": 0.001453706,
        "meta_mean_motion_dot": 0.00060659,
        "meta_mean_motion_ddot": 0,
        "tle_line1": "1 66462U 25262G   25345.58335648  .00060659  00000+0  14537-2 0  9999",
        "tle_line2": "2 66462  43.0003  78.0930 0001105 294.6826 349.7953 15.40578081  5450"
      },
      "geometry": {
        "type": "Point",
        "coordinates": [
          100.60405564804553,
          20.84463165572873
        ]
      }
    },
    {
      "type": "Feature",
      "properties": {
        "norad_id": 66463,
        "name": "STARLINK-35463",
        "group": "last-30-days",
        "lat": 34.5064456469347,
        "lon": 123.96340767578702,
        "alt_km": 439.4466095566868,
        "timestamp": "2025-12-11T20:41:13.846208+00:00",
        "meta_object_name": "STARLINK-35463",
        "meta_object_id": "2025-262H",
        "meta_epoch": "2025-12-11T14:00:01.999872",
        "meta_mean_motion": 15.40633339,
        "meta_eccentricity": 0.00013378,
        "meta_inclination": 43.0007,
        "meta_ra_of_asc_node": 78.0332,
        "meta_arg_of_pericenter": 262.8033,
        "meta_mean_anomaly": 46.3324,
        "meta_ephemeris_type": 0,
        "meta_classification_type": "U",
        "meta_norad_cat_id": 66463,
        "meta_element_set_no": 999,
        "meta_rev_at_epoch": 545,
        "meta_bstar": 0.0014360793,
        "meta_mean_motion_dot": 0.00060025,
        "meta_mean_motion_ddot": 0,
        "tle_line1": "1 66463U 25262H   25345.58335648  .00060025  00000+0  14361-2 0  9992",
        "tle_line2": "2 66463  43.0007  78.0332 0001337 262.8033  46.3324 15.40633339  5455"
      },
      "geometry": {
        "type": "Point",
        "coordinates": [
          123.96340767578702,
          34.5064456469347
        ]
      }
    },
    {
      "type": "Feature",
      "properties": {
        "norad_id": 66464,
        "name": "STARLINK-35435",
        "group": "last-30-days",
        "lat": 28.213265003515836,
        "lon": 111.60737825733868,
        "alt_km": 440.4974207515688,
        "timestamp": "2025-12-11T20:41:13.846220+00:00",
        "meta_object_name": "STARLINK-35435",
        "meta_object_id": "2025-262J",
        "meta_epoch": "2025-12-11T14:00:01.999872",
        "meta_mean_motion": 15.40760838,
        "meta_eccentricity": 0.00013818,
        "meta_inclination": 43.0005,
        "meta_ra_of_asc_node": 78.0634,
        "meta_arg_of_pericenter": 260.2673,
        "meta_mean_anomaly": 36.5387,
        "meta_ephemeris_type": 0,
        "meta_classification_type": "U",
        "meta_norad_cat_id": 66464,
        "meta_element_set_no": 999,
        "meta_rev_at_epoch": 545,
        "meta_bstar": -0.0054475802,
        "meta_mean_motion_dot": -0.00221823,
        "meta_mean_motion_ddot": 0,
        "tle_line1": "1 66464U 25262J   25345.58335648 -.00221823  00000+0 -54476-2 0  9991",
        "tle_line2": "2 66464  43.0005  78.0634 0001381 260.2673  36.5387 15.40760838  5455"
      },
      "geometry": {
        "type": "Point",
        "coordinates": [
          111.60737825733868,
          28.213265003515836
        ]
      }
    },
    {
      "type": "Feature",
      "properties": {
        "norad_id": 66465,
        "name": "STARLINK-35448",
        "group": "last-30-days",
        "lat": 42.35340731262042,
        "lon": 154.4055018315318,
        "alt_km": 438.1572335638202,
        "timestamp": "2025-12-11T20:41:13.846230+00:00",
        "meta_object_name": "STARLINK-35448",
        "meta_object_id": "2025-262K",
        "meta_epoch": "2025-12-11T14:00:01.999872",
        "meta_mean_motion": 15.40621482,
        "meta_eccentricity": 0.00011864,
        "meta_inclination": 43.0005,
        "meta_ra_of_asc_node": 77.9731,
        "meta_arg_of_pericenter": 288.8651,
        "meta_mean_anomaly": 45.2442,
        "meta_ephemeris_type": 0,
        "meta_classification_type": "U",
        "meta_norad_cat_id": 66465,
        "meta_element_set_no": 999,
        "meta_rev_at_epoch": 545,
        "meta_bstar": 0.0013887063,
        "meta_mean_motion_dot": 0.00057996,
        "meta_mean_motion_ddot": 0,
        "tle_line1": "1 66465U 25262K   25345.58335648  .00057996  00000+0  13887-2 0  9999",
        "tle_line2": "2 66465  43.0005  77.9731 0001186 288.8651  45.2442 15.40621482  5457"
      },
      "geometry": {
        "type": "Point",
        "coordinates": [
          154.4055018315318,
          42.35340731262042
        ]
      }
    },
    {
      "type": "Feature",
      "properties": {
        "norad_id": 66466,
        "name": "STARLINK-35388",
        "group": "last-30-days",
        "lat": 42.87572699796044,
        "lon": 171.23667463646288,
        "alt_km": 438.0787303690986,
        "timestamp": "2025-12-11T20:41:13.846240+00:00",
        "meta_object_name": "STARLINK-35388",
        "meta_object_id": "2025-262L",
        "meta_epoch": "2025-12-11T14:00:01.999872",
        "meta_mean_motion": 15.40622159,
        "meta_eccentricity": 0.00010856,
        "meta_inclination": 43.0007,
        "meta_ra_of_asc_node": 77.9404,
        "meta_arg_of_pericenter": 269.3146,
        "meta_mean_anomaly": 77.1795,
        "meta_ephemeris_type": 0,
        "meta_classification_type": "U",
        "meta_norad_cat_id": 66466,
        "meta_element_set_no": 999,
        "meta_rev_at_epoch": 545,
        "meta_bstar": 0.0018511039,
        "meta_mean_motion_dot": 0.0007761,
        "meta_mean_motion_ddot": 0,
        "tle_line1": "1 66466U 25262L   25345.58335648  .00077610  00000+0  18511-2 0  9994",
        "tle_line2": "2 66466  43.0007  77.9404 0001085 269.3146  77.1795 15.40622159  5455"
      },
      "geometry": {
        "type": "Point",
        "coordinates": [
          171.23667463646288,
          42.87572699796044
        ]
      }
    }
  ]
}